[{"OBJECT_NAME":"KINEIS-5D","OBJECT_ID":"2024-219B","EPOCH":"2026-03-09T22:30:16.875648","MEAN_MOTION":14.72345174,"ECCENTRICITY":0.00012375,"INCLINATION":97.9569,"RA_OF_ASC_NODE":230.365,"ARG_OF_PERICENTER":120.2964,"MEAN_ANOMALY":239.8366,"EPHEMERIS_TYPE":0,"CLASSIFICATION_TYPE":"U","NORAD_CAT_ID":62082,"ELEMENT_SET_NO":999,"REV_AT_EPOCH":6915,"BSTAR":0.0002571671,"MEAN_MOTION_DOT":1.578e-5,"MEAN_MOTION_DDOT":0},{"OBJECT_NAME":"COSMOS 2251 DEB","OBJECT_ID":"1993-036BVZ","EPOCH":"2026-03-05T00:56:00.979008","MEAN_MOTION":14.83036639,"ECCENTRICITY":0.00524286,"INCLINATION":74.0151,"RA_OF_ASC_NODE":339.2252,"ARG_OF_PERICENTER":96.1915,"MEAN_ANOMALY":281.2414,"EPHEMERIS_TYPE":0,"CLASSIFICATION_TYPE":"U","NORAD_CAT_ID":40796,"ELEMENT_SET_NO":999,"REV_AT_EPOCH":77378,"BSTAR":0.0010636969,"MEAN_MOTION_DOT":8.84e-5,"MEAN_MOTION_DDOT":0}]
